STARLINK-30327          
1 57707U 23129K   26068.51769668  .00007635  00000+0  29314-3 0  9995
2 57707  42.9974  85.9834 0023030  70.8320 289.5022 15.26626807140903
STARLINK-34896          
1 66288U 25247Z   26068.61256847  .00027604  00000+0  94151-3 0  9992
2 66288  53.1588 191.6684 0001243  79.1910 280.9231 15.30171297 21020
